{
  "type": "FeatureCollection",
  "features": [
    {
      "type": "Feature",
      "properties": {
        "norad_id": 66636,
        "name": "STARLINK-35968",
        "group": "last-30-days",
        "lat": -5.116307743232584,
        "lon": 171.6965261928402,
        "alt_km": 420.78135037048287,
        "timestamp": "2025-12-15T04:01:19.180434+00:00",
        "meta_object_name": "STARLINK-35968",
        "meta_object_id": "2025-271V",
        "meta_epoch": "2025-12-14T06:00:02.999808",
        "meta_mean_motion": 15.49364695,
        "meta_eccentricity": 5.932e-05,
        "meta_inclination": 53.1601,
        "meta_ra_of_asc_node": 179.9335,
        "meta_arg_of_pericenter": 80.033,
        "meta_mean_anomaly": 193.3134,
        "meta_ephemeris_type": 0,
        "meta_classification_type": "U",
        "meta_norad_cat_id": 66636,
        "meta_element_set_no": 999,
        "meta_rev_at_epoch": 448,
        "meta_bstar": -0.0021939225,
        "meta_mean_motion_dot": -0.00120829,
        "meta_mean_motion_ddot": 0,
        "tle_line1": "1 66636U 25271V   25348.25003472 -.00120829  00000+0 -21939-2 0  9998",
        "tle_line2": "2 66636  53.1601 179.9335 0000593  80.0330 193.3134 15.49364695  4485"
      },
      "geometry": {
        "type": "Point",
        "coordinates": [
          171.6965261928402,
          -5.116307743232584
        ]
      }
    },
    {
      "type": "Feature",
      "properties": {
        "norad_id": 66637,
        "name": "STARLINK-35953",
        "group": "last-30-days",
        "lat": -3.773780619015986,
        "lon": 172.70746078667366,
        "alt_km": 420.87695929028905,
        "timestamp": "2025-12-15T04:01:19.180444+00:00",
        "meta_object_name": "STARLINK-35953",
        "meta_object_id": "2025-271W",
        "meta_epoch": "2025-12-14T06:00:02.999808",
        "meta_mean_motion": 15.49449918,
        "meta_eccentricity": 7.894e-05,
        "meta_inclination": 53.1601,
        "meta_ra_of_asc_node": 179.9296,
        "meta_arg_of_pericenter": 38.4315,
        "meta_mean_anomaly": 236.8157,
        "meta_ephemeris_type": 0,
        "meta_classification_type": "U",
        "meta_norad_cat_id": 66637,
        "meta_element_set_no": 999,
        "meta_rev_at_epoch": 448,
        "meta_bstar": -0.0051709214,
        "meta_mean_motion_dot": -0.00279372,
        "meta_mean_motion_ddot": 0,
        "tle_line1": "1 66637U 25271W   25348.25003472 -.00279372  00000+0 -51709-2 0  9995",
        "tle_line2": "2 66637  53.1601 179.9296 0000789  38.4315 236.8157 15.49449918  4489"
      },
      "geometry": {
        "type": "Point",
        "coordinates": [
          172.70746078667366,
          -3.773780619015986
        ]
      }
    },
    {
      "type": "Feature",
      "properties": {
        "norad_id": 66638,
        "name": "STARLINK-35972",
        "group": "last-30-days",
        "lat": -2.066889524146719,
        "lon": 173.98779916558803,
        "alt_km": 420.2852995687508,
        "timestamp": "2025-12-15T04:01:19.180454+00:00",
        "meta_object_name": "STARLINK-35972",
        "meta_object_id": "2025-271X",
        "meta_epoch": "2025-12-14T06:00:02.999808",
        "meta_mean_motion": 15.493813,
        "meta_eccentricity": 6.404e-05,
        "meta_inclination": 53.1601,
        "meta_ra_of_asc_node": 179.9263,
        "meta_arg_of_pericenter": 60.1729,
        "meta_mean_anomaly": 216.9931,
        "meta_ephemeris_type": 0,
        "meta_classification_type": "U",
        "meta_norad_cat_id": 66638,
        "meta_element_set_no": 999,
        "meta_rev_at_epoch": 448,
        "meta_bstar": -0.0025424357,
        "meta_mean_motion_dot": -0.001397,
        "meta_mean_motion_ddot": 0,
        "tle_line1": "1 66638U 25271X   25348.25003472 -.00139700  00000+0 -25424-2 0  9991",
        "tle_line2": "2 66638  53.1601 179.9263 0000640  60.1729 216.9931 15.49381300  4480"
      },
      "geometry": {
        "type": "Point",
        "coordinates": [
          173.98779916558803,
          -2.066889524146719
        ]
      }
    },
    {
      "type": "Feature",
      "properties": {
        "norad_id": 66639,
        "name": "STARLINK-35908",
        "group": "last-30-days",
        "lat": -0.5613083996247619,
        "lon": 175.1126042932336,
        "alt_km": 420.5782688458048,
        "timestamp": "2025-12-15T04:01:19.180466+00:00",
        "meta_object_name": "STARLINK-35908",
        "meta_object_id": "2025-271Y",
        "meta_epoch": "2025-12-14T06:00:02.999808",
        "meta_mean_motion": 15.49495422,
        "meta_eccentricity": 6.823e-05,
        "meta_inclination": 53.1601,
        "meta_ra_of_asc_node": 179.9215,
        "meta_arg_of_pericenter": 83.9828,
        "meta_mean_anomaly": 195.062,
        "meta_ephemeris_type": 0,
        "meta_classification_type": "U",
        "meta_norad_cat_id": 66639,
        "meta_element_set_no": 999,
        "meta_rev_at_epoch": 448,
        "meta_bstar": -0.0047478147,
        "meta_mean_motion_dot": -0.00257665,
        "meta_mean_motion_ddot": 0,
        "tle_line1": "1 66639U 25271Y   25348.25003472 -.00257665  00000+0 -47478-2 0  9996",
        "tle_line2": "2 66639  53.1601 179.9215 0000682  83.9828 195.0620 15.49495422  4480"
      },
      "geometry": {
        "type": "Point",
        "coordinates": [
          175.1126042932336,
          -0.5613083996247619
        ]
      }
    },
    {
      "type": "Feature",
      "properties": {
        "norad_id": 66640,
        "name": "STARLINK-35921",
        "group": "last-30-days",
        "lat": 1.037800936560553,
        "lon": 176.30792874518286,
        "alt_km": 419.78701685919805,
        "timestamp": "2025-12-15T04:01:19.180478+00:00",
        "meta_object_name": "STARLINK-35921",
        "meta_object_id": "2025-271Z",
        "meta_epoch": "2025-12-14T06:00:02.999808",
        "meta_mean_motion": 15.49355689,
        "meta_eccentricity": 0.00012036,
        "meta_inclination": 53.1602,
        "meta_ra_of_asc_node": 179.9179,
        "meta_arg_of_pericenter": 80.0244,
        "meta_mean_anomaly": 200.984,
        "meta_ephemeris_type": 0,
        "meta_classification_type": "U",
        "meta_norad_cat_id": 66640,
        "meta_element_set_no": 999,
        "meta_rev_at_epoch": 448,
        "meta_bstar": -0.0017755016,
        "meta_mean_motion_dot": -0.00098126,
        "meta_mean_motion_ddot": 0,
        "tle_line1": "1 66640U 25271Z   25348.25003472 -.00098126  00000+0 -17755-2 0  9998",
        "tle_line2": "2 66640  53.1602 179.9179 0001203  80.0244 200.9840 15.49355689  4482"
      },
      "geometry": {
        "type": "Point",
        "coordinates": [
          176.30792874518286,
          1.037800936560553
        ]
      }
    },
    {
      "type": "Feature",
      "properties": {
        "norad_id": 66641,
        "name": "STARLINK-35923",
        "group": "last-30-days",
        "lat": 7.163920392293793,
        "lon": -179.08007023673352,
        "alt_km": 419.10472260204006,
        "timestamp": "2025-12-15T04:01:19.180488+00:00",
        "meta_object_name": "STARLINK-35923",
        "meta_object_id": "2025-271AA",
        "meta_epoch": "2025-12-14T06:00:02.999808",
        "meta_mean_motion": 15.49395573,
        "meta_eccentricity": 0.00012331,
        "meta_inclination": 53.1601,
        "meta_ra_of_asc_node": 179.901,
        "meta_arg_of_pericenter": 93.6473,
        "meta_mean_anomaly": 195.0122,
        "meta_ephemeris_type": 0,
        "meta_classification_type": "U",
        "meta_norad_cat_id": 66641,
        "meta_element_set_no": 999,
        "meta_rev_at_epoch": 448,
        "meta_bstar": -0.0024559898,
        "meta_mean_motion_dot": -0.00135118,
        "meta_mean_motion_ddot": 0,
        "tle_line1": "1 66641U 25271AA  25348.25003472 -.00135118  00000+0 -24560-2 0  9994",
        "tle_line2": "2 66641  53.1601 179.9010 0001233  93.6473 195.0122 15.49395573  4486"
      },
      "geometry": {
        "type": "Point",
        "coordinates": [
          -179.08007023673352,
          7.163920392293793
        ]
      }
    },
    {
      "type": "Feature",
      "properties": {
        "norad_id": 66642,
        "name": "STARLINK-35926",
        "group": "last-30-days",
        "lat": 5.466048205526992,
        "lon": 179.6320699519016,
        "alt_km": 419.67110712648537,
        "timestamp": "2025-12-15T04:01:19.180499+00:00",
        "meta_object_name": "STARLINK-35926",
        "meta_object_id": "2025-271AB",
        "meta_epoch": "2025-12-14T06:00:02.999808",
        "meta_mean_motion": 15.49437276,
        "meta_eccentricity": 7.667e-05,
        "meta_inclination": 53.16,
        "meta_ra_of_asc_node": 179.9058,
        "meta_arg_of_pericenter": 69.1254,
        "meta_mean_anomaly": 217.6145,
        "meta_ephemeris_type": 0,
        "meta_classification_type": "U",
        "meta_norad_cat_id": 66642,
        "meta_element_set_no": 999,
        "meta_rev_at_epoch": 424,
        "meta_bstar": -0.0045510295,
        "meta_mean_motion_dot": -0.00246837,
        "meta_mean_motion_ddot": 0,
        "tle_line1": "1 66642U 25271AB  25348.25003472 -.00246837  00000+0 -45510-2 0  9994",
        "tle_line2": "2 66642  53.1600 179.9058 0000766  69.1254 217.6145 15.49437276  4240"
      },
      "geometry": {
        "type": "Point",
        "coordinates": [
          179.6320699519016,
          5.466048205526992
        ]
      }
    }
  ]
}